NORAD_CAT_ID,OBJECT_NAME,OBJECT_TYPE,EPOCH,MEAN_MOTION,ECCENTRICITY,INCLINATION,RA_OF_ASC_NODE,ARG_OF_PERICENTER,MEAN_ANOMALY,BSTAR,MEAN_MOTION_DOT,MEAN_MOTION_DDOT,TLE_LINE0,TLE_LINE1,TLE_LINE2,SEMIMAJOR_AXIS,PERIOD,APOGEE,PERIGEE,DECAYED
52094.0,STARLINK-3714,PAYLOAD,2023-06-17 11:49:14,15.08839122,0.0001076,53.2157,241.2247,98.204,261.9074,6.1936e-05,6.98e-06,0.0,0 STARLINK-3714,1 52094U 22029G   23168.49252779  .00000698  00000-0  61936-4 0  9992,2 52094  53.2157 241.2247 0001076  98.2040 261.9074 15.08839122 70267,6917.883,95.438,540.492,539.004,0.0
52094.0,STARLINK-3714,PAYLOAD,2023-06-17 21:21:33,15.08839828,0.0001074,53.2158,239.4407,97.4338,262.6776,1.9051e-05,1.5e-07,0.0,0 STARLINK-3714,1 52094U 22029G   23168.88996686  .00000015  00000-0  19051-4 0  9991,2 52094  53.2158 239.4407 0001074  97.4338 262.6776 15.08839828 70321,6917.881,95.438,540.489,539.003,0.0
52094.0,STARLINK-3714,PAYLOAD,2023-06-18 11:40:01,15.08839931,0.0001125,53.2158,236.7648,99.0165,261.0955,3.6532e-05,2.94e-06,0.0,0 STARLINK-3714,1 52094U 22029G   23169.48612831  .00000294  00000-0  36532-4 0  9997,2 52094  53.2158 236.7648 0001125  99.0165 261.0955 15.08839931 70418,6917.881,95.438,540.524,538.967,0.0
52094.0,STARLINK-3714,PAYLOAD,2023-06-19 06:44:39,15.0883923,0.0001104,53.2154,233.1965,100.2666,259.8451,0.00015098,2.116e-05,0.0,0 STARLINK-3714,1 52094U 22029G   23170.28101142  .00002116  00000-0  15098-3 0  9993,2 52094  53.2154 233.1965 0001104 100.2666 259.8451 15.08839230 70536,6917.883,95.438,540.511,538.984,0.0
52094.0,STARLINK-3714,PAYLOAD,2023-06-19 08:20:02,15.08840658,0.0001097,53.2154,232.8991,100.2092,259.9024,0.00017326,2.471e-05,0.0,0 STARLINK-3714,1 52094U 22029G   23170.34725096  .00002471  00000-0  17326-3 0  9990,2 52094  53.2154 232.8991 0001097 100.2092 259.9024 15.08840658 70549,6917.878,95.438,540.502,538.984,0.0
52094.0,STARLINK-3714,PAYLOAD,2023-06-19 21:03:07,15.08843449,0.0001096,53.2153,230.5205,99.9746,260.137,0.00018698,2.689e-05,0.0,0 STARLINK-3714,1 52094U 22029G   23170.87717000  .00002689  00000-0  18698-3 0  9998,2 52094  53.2153 230.5205 0001096  99.9746 260.1370 15.08843449 70628,6917.87,95.437,540.493,538.977,0.0
52094.0,STARLINK-3714,PAYLOAD,2023-06-20 05:00:03,15.08837133,0.0001087,53.2153,229.033,93.6838,266.4279,0.00012388,1.684e-05,0.0,0 STARLINK-3714,1 52094U 22029G   23171.20837456  .00001684  00000-0  12388-3 0  9998,2 52094  53.2153 229.0330 0001087  93.6838 266.4279 15.08837133 70678,6917.889,95.438,540.506,539.002,0.0
52094.0,STARLINK-3714,PAYLOAD,2023-06-21 11:12:22,15.08847278,0.0001086,53.2152,223.3827,87.2267,272.8849,0.00018529,2.663e-05,0.0,0 STARLINK-3714,1 52094U 22029G   23172.46693096  .00002663  00000-0  18529-3 0  9998,2 52094  53.2152 223.3827 0001086  87.2267 272.8849 15.08847278 70865,6917.858,95.437,540.474,538.972,0.0
52094.0,STARLINK-3714,PAYLOAD,2023-06-22 09:27:47,15.08840699,0.0001134,53.2151,219.2193,93.9027,266.2094,0.00011131,1.484e-05,0.0,0 STARLINK-3714,1 52094U 22029G   23173.39429442  .00001484  00000-0  11131-3 0  9995,2 52094  53.2151 219.2193 0001134  93.9027 266.2094 15.08840699 71002,6917.878,95.438,540.528,538.959,0.0
52094.0,STARLINK-3714,PAYLOAD,2023-06-24 09:09:21,15.08840127,0.0001082,53.2155,210.2983,86.6963,273.4153,8.9197e-05,1.132e-05,0.0,0 STARLINK-3714,1 52094U 22029G   23175.38149456  .00001132  00000-0  89197-4 0  9998,2 52094  53.2155 210.2983 0001082  86.6963 273.4153 15.08840127 71309,6917.88,95.438,540.494,538.996,0.0
52094.0,STARLINK-3714,PAYLOAD,2023-06-26 02:29:23,15.08837627,0.0001064,53.2152,202.567,83.1755,276.9358,4.7958e-05,4.76e-06,0.0,0 STARLINK-3714,1 52094U 22029G   23177.10373896  .00000476  00000-0  47958-4 0  9996,2 52094  53.2152 202.5670 0001064  83.1755 276.9358 15.08837627 71568,6917.888,95.438,540.489,539.017,0.0
52094.0,STARLINK-3714,PAYLOAD,2023-06-27 08:41:42,15.08835201,0.000106,53.2156,196.9173,85.9629,274.1484,1.6215e-05,-3e-07,0.0,0 STARLINK-3714,1 52094U 22029G   23178.36230302 -.00000030  00000-0  16215-4 0  9998,2 52094  53.2156 196.9173 0001060  85.9629 274.1484 15.08835201 71759,6917.895,95.438,540.493,539.027,0.0
52094.0,STARLINK-3714,PAYLOAD,2023-06-28 08:32:29,15.08840704,0.0001072,53.216,192.4565,86.3766,273.7349,5.6017e-05,6.04e-06,0.0,0 STARLINK-3714,1 52094U 22029G   23179.35589938  .00000604  00000-0  56017-4 0  9990,2 52094  53.2160 192.4565 0001072  86.3766 273.7349 15.08840704 71906,6917.878,95.438,540.485,539.002,0.0
52094.0,STARLINK-3714,PAYLOAD,2023-06-29 09:58:39,15.08839715,0.0001139,53.2161,187.6982,84.1515,275.9607,7.4456e-05,8.97e-06,0.0,0 STARLINK-3714,1 52094U 22029G   23180.41574043  .00000897  00000-0  74456-4 0  9991,2 52094  53.2161 187.6982 0001139  84.1515 275.9607 15.08839715 72067,6917.881,95.438,540.534,538.958,0.0
52094.0,STARLINK-3714,PAYLOAD,2023-06-30 17:46:22,15.08840201,0.0001123,53.2161,181.7509,86.264,273.8481,3.2584e-05,2.31e-06,0.0,0 STARLINK-3714,1 52094U 22029G   23181.74054000  .00000231  00000-0  32584-4 0  9992,2 52094  53.2161 181.7509 0001123  86.2640 273.8481 15.08840201 72263,6917.88,95.438,540.522,538.968,0.0
52094.0,STARLINK-3714,PAYLOAD,2023-07-01 23:58:42,15.08837082,0.0001189,53.2163,176.1006,88.9152,271.1976,7.9413e-06,-1.61e-06,0.0,0 STARLINK-3714,1 52094U 22029G   23182.99910345 -.00000161  00000-0  79413-5 0  9999,2 52094  53.2163 176.1006 0001189  88.9152 271.1976 15.08837082 72458,6917.889,95.438,540.577,538.932,0.0
52094.0,STARLINK-3714,PAYLOAD,2023-07-03 07:46:25,15.08839284,0.0001182,53.2164,170.1543,84.2664,275.8463,4.7531e-05,4.69e-06,0.0,0 STARLINK-3714,1 52094U 22029G   23184.32390299  .00000469  00000-0  47531-4 0  9993,2 52094  53.2164 170.1543 0001182  84.2664 275.8463 15.08839284 72659,6917.883,95.438,540.565,538.93,0.0
52094.0,STARLINK-3714,PAYLOAD,2023-07-04 02:51:03,15.08833261,0.0001187,53.2166,166.5864,85.1103,275.0025,1.218e-05,-9.4e-07,0.0,0 STARLINK-3714,1 52094U 22029G   23185.11878987 -.00000094  00000-0  12180-4 0  9993,2 52094  53.2166 166.5864 0001187  85.1103 275.0025 15.08833261 72777,6917.901,95.438,540.587,538.945,0.0
52094.0,STARLINK-3714,PAYLOAD,2023-07-05 05:52:36,15.0884048,0.0001206,53.2165,161.5308,88.6805,271.4325,3.5924e-05,2.84e-06,0.0,0 STARLINK-3714,1 52094U 22029G   23186.24486698  .00000284  00000-0  35924-4 0  9993,2 52094  53.2165 161.5308 0001206  88.6805 271.4325 15.08840480 72946,6917.879,95.438,540.578,538.91,0.0
52094.0,STARLINK-3714,PAYLOAD,2023-07-05 23:21:51,15.08835524,0.0001239,53.2167,158.2592,89.8466,270.2668,2.7134e-05,1.44e-06,0.0,0 STARLINK-3714,1 52094U 22029G   23186.97351153  .00000144  00000-0  27134-4 0  9999,2 52094  53.2167 158.2592 0001239  89.8466 270.2668 15.08835524 73051,6917.894,95.438,540.616,538.902,0.0
52094.0,STARLINK-3714,PAYLOAD,2023-07-07 03:58:47,15.08842973,0.0001203,53.2164,152.9067,90.6395,269.4735,7.3794e-05,8.87e-06,0.0,0 STARLINK-3714,1 52094U 22029G   23188.16582732  .00000887  00000-0  73794-4 0  9998,2 52094  53.2164 152.9067 0001203  90.6395 269.4735 15.08842973 73239,6917.871,95.437,540.569,538.904,0.0
52094.0,STARLINK-3714,PAYLOAD,2023-07-07 23:03:25,15.08838538,0.0001254,53.2162,149.3385,90.3527,269.7609,5.5788e-05,6e-06,0.0,0 STARLINK-3714,1 52094U 22029G   23188.96070994  .00000600  00000-0  55788-4 0  9994,2 52094  53.2162 149.3385 0001254  90.3527 269.7609 15.08838538 73358,6917.885,95.438,540.617,538.882,0.0
52094.0,STARLINK-3714,PAYLOAD,2023-07-08 03:49:34,15.08843989,0.0001234,53.2162,148.4459,94.1622,265.9511,0.00010188,1.334e-05,0.0,0 STARLINK-3714,1 52094U 22029G   23189.15942502  .00001334  00000-0  10188-3 0  9998,2 52094  53.2162 148.4459 0001234  94.1622 265.9511 15.08843989 73385,6917.868,95.437,540.587,538.88,0.0
52094.0,STARLINK-3714,PAYLOAD,2023-07-09 03:40:22,15.08837666,0.0001189,53.2164,143.9847,94.4986,265.6142,6.3122e-06,-1.87e-06,0.0,0 STARLINK-3714,1 52094U 22029G   23190.15303317 -.00000187  00000-0  63122-5 0  9999,2 52094  53.2164 143.9847 0001189  94.4986 265.6142 15.08837666 73532,6917.888,95.438,540.575,538.93,0.0
52094.0,STARLINK-3714,PAYLOAD,2023-07-10 13:03:27,15.08840092,0.0001063,53.2166,137.7427,89.9928,270.1186,5.5641e-07,-2.79e-06,0.0,0 STARLINK-3714,1 52094U 22029G   23191.54407377 -.00000279  00000-0  55641-6 0  9994,2 52094  53.2166 137.7427 0001063  89.9928 270.1186 15.08840092 73744,6917.88,95.438,540.48,539.01,0.0
52094.0,STARLINK-3714,PAYLOAD,2023-07-11 19:15:47,15.08900647,7.92e-05,53.2164,132.0938,103.9227,256.1853,-0.0007394,-0.00012055,0.0,0 STARLINK-3714,1 52094U 22029G   23192.80263055 -.00012055  00000-0 -73940-3 0  9992,2 52094  53.2164 132.0938 0000792 103.9227 256.1853 15.08900647 73933,6917.695,95.434,540.108,539.012,0.0
52094.0,STARLINK-3714,PAYLOAD,2023-07-12 03:12:43,15.08837582,0.0001018,53.2167,130.6067,89.0247,271.0862,2.3908e-05,9.3e-07,0.0,0 STARLINK-3714,1 52094U 22029G   23193.13383741  .00000093  00000-0  23908-4 0  9991,2 52094  53.2167 130.6067 0001018  89.0247 271.0862 15.08837582 73989,6917.888,95.438,540.457,539.049,0.0
52094.0,STARLINK-3714,PAYLOAD,2023-07-13 04:38:54,15.08835025,0.0001168,53.2172,125.8476,84.4341,275.6784,-3.7035e-05,-8.77e-06,0.0,0 STARLINK-3714,1 52094U 22029G   23194.19368312 -.00000877  00000-0 -37035-4 0  9993,2 52094  53.2172 125.8476 0001168  84.4341 275.6784 15.08835025 74147,6917.896,95.438,540.569,538.953,0.0
52094.0,STARLINK-3714,PAYLOAD,2023-07-14 18:48:08,15.08838794,0.0001259,53.2167,118.7119,84.7531,275.3604,0.00010089,1.318e-05,0.0,0 STARLINK-3714,1 52094U 22029G   23195.78343722  .00001318  00000-0  10089-3 0  9995,2 52094  53.2167 118.7119 0001259  84.7531 275.3604 15.08838794 74381,6917.884,95.438,540.62,538.878,0.0
52094.0,STARLINK-3714,PAYLOAD,2023-07-16 04:11:14,15.08845199,0.0001193,53.2171,112.466,94.1732,265.9396,-1.9486e-05,-5.98e-06,0.0,0 STARLINK-3714,1 52094U 22029G   23197.17447596 -.00000598  00000-0 -19486-4 0  9996,2 52094  53.2171 112.4660 0001193  94.1732 265.9396 15.08845199 74596,6917.864,95.437,540.555,538.904,0.0
